NORAD_CAT_ID,OBJECT_NAME,OBJECT_TYPE,EPOCH,MEAN_MOTION,ECCENTRICITY,INCLINATION,RA_OF_ASC_NODE,ARG_OF_PERICENTER,MEAN_ANOMALY,BSTAR,MEAN_MOTION_DOT,MEAN_MOTION_DDOT,TLE_LINE0,TLE_LINE1,TLE_LINE2,SEMIMAJOR_AXIS,PERIOD,APOGEE,PERIGEE,DECAYED
53020.0,STARLINK-4287,PAYLOAD,2022-09-17 14:00:01,15.49907344,0.0001847,53.2157,24.3012,49.8226,211.33900000000003,-0.00014153,-8.482e-05,0.0,0 STARLINK-4287,1 53020U 22076AL  22260.58334491 -.00008482  00000-0 -14153-3 0  9997,2 53020  53.2157  24.3012 0001847  49.8226 211.3390 15.49907344  1307,6795.134,92.909,418.254,415.744,0.0
53020.0,STARLINK-4287,PAYLOAD,2022-09-17 22:00:00,15.49956617,0.0001692,53.2156,22.7055,45.1197,276.9694,-0.0019844,-0.00111771,0.0,0 STARLINK-4287,1 53020U 22076AL  22260.91667824 -.00111771  00000-0 -19844-2 0  9990,2 53020  53.2156  22.7055 0001692  45.1197 276.9694 15.49956617  1300,6794.99,92.906,418.005,415.705,0.0
53020.0,STARLINK-4287,PAYLOAD,2022-09-18 06:00:00,15.49852722,0.0001435,53.2162,21.106,48.4344,334.634,-0.0091563999999999,-0.00488433,0.0,0 STARLINK-4287,1 53020U 22076AL  22261.25001157 -.00488433  00000-0 -91564-2 0  9990,2 53020  53.2162  21.1060 0001435  48.4344 334.6340 15.49852722 11922,6795.294,92.912,418.134,416.1830000000001,0.0
53020.0,STARLINK-4287,PAYLOAD,2022-09-18 14:00:01,15.49674709,0.0001654,53.2174,19.5121,44.4293,39.3445,-0.020916,-0.01068969,0.0,0 STARLINK-4287,1 53020U 22076AL  22261.58335648 -.01068969  00000-0 -20916-1 0  9992,2 53020  53.2174  19.5121 0001654  44.4293  39.3445 15.49674709  1309,6795.814,92.923,418.80300000000005,416.555,0.0
53020.0,STARLINK-4287,PAYLOAD,2022-09-18 22:00:00,15.48907379,0.000149,53.2171,17.9185,50.1889,93.7129,-0.021268,-0.0105874,0.0,0 STARLINK-4287,1 53020U 22076AL  22261.91667824 -.01058740  00000-0 -21268-1 0  9990,2 53020  53.2171  17.9185 0001490  50.1889  93.7129 15.48907379  1305,6798.058000000001,92.969,420.936,418.91,0.0
53020.0,STARLINK-4287,PAYLOAD,2022-09-19 14:00:01,15.47387145,0.0001754999999999,53.2172,14.7381,38.3103,223.2289,-0.022387,-0.0105668999999999,0.0,0 STARLINK-4287,1 53020U 22076AL  22262.58334491 -.01056690  00000-0 -22387-1 0  9990,2 53020  53.2172  14.7381 0001755  38.3103 223.2289 15.47387145 12132,6802.51,93.06,425.569,423.181,0.0
53020.0,STARLINK-4287,PAYLOAD,2022-09-19 22:00:00,15.4663024,0.0001314,53.2172,13.15,50.8566,268.1317,-0.023086,-0.0106074,0.0,0 STARLINK-4287,1 53020U 22076AL  22262.91667824 -.01060740  00000-0 -23086-1 0  9994,2 53020  53.2172  13.1500 0001314  50.8566 268.1317 15.46630240  1304,6804.729,93.106,427.48800000000006,425.7,0.0
53020.0,STARLINK-4287,PAYLOAD,2022-09-20 06:00:00,15.45867272,0.0001465,53.2172,11.5625,40.3958,335.1318,-0.023568,-0.0105519,0.0,0 STARLINK-4287,1 53020U 22076AL  22263.25001157 -.01055190  00000-0 -23568-1 0  9991,2 53020  53.2172  11.5625 0001465  40.3958 335.1318 15.45867272 12236,6806.968000000003,93.152,429.83,427.836,0.0
53020.0,STARLINK-4287,PAYLOAD,2022-09-20 14:00:01,15.45110773,0.0001889,53.2173,9.9806,31.279,39.8705,-0.024297,-0.01059481,0.0,0 STARLINK-4287,1 53020U 22076AL  22263.58334491 -.01059481  00000-0 -24297-1 0  9994,2 53020  53.2173   9.9806 0001889  31.2790  39.8705 15.45110773  1303,6809.19,93.197,432.341,429.768,0.0
53020.0,STARLINK-4287,PAYLOAD,2022-09-20 22:00:01,15.44349558,0.0001623,53.2172,8.3977,42.1048,83.822,-0.024865,-0.01056498,0.0,0 STARLINK-4287,1 53020U 22076AL  22263.91668981 -.01056498  00000-0 -24865-1 0  9991,2 53020  53.2172   8.3977 0001623  42.1048  83.8220 15.44349558  1302,6811.427,93.243,434.397,432.186,0.0
53020.0,STARLINK-4287,PAYLOAD,2022-09-21 22:00:00,15.42072656,0.0001501,53.2173,3.6618,45.6964,238.8248,-0.026937,-0.0107394,0.0,0 STARLINK-4287,1 53020U 22076AL  22264.91667824 -.01073940  00000-0 -26937-1 0  9990,2 53020  53.2173   3.6618 0001501  45.6964 238.8248 15.42072656 12497,6818.13,93.381,441.018,438.972,0.0
53020.0,STARLINK-4287,PAYLOAD,2022-09-22 14:00:01,15.40574732,0.0001638,53.2174,0.5157,38.3761,347.3428,-0.0291449999999999,-0.01102574,0.0,0 STARLINK-4287,1 53020U 22076AL  22265.58334491 -.01102574  00000-0 -29145-1 0  9995,2 53020  53.2174   0.5157 0001638  38.3761 347.3428 15.40574732  1301,6822.549,93.472,445.531,443.296,0.0
53020.0,STARLINK-4287,PAYLOAD,2022-09-22 22:00:00,15.39794298,0.0001759,53.2169,358.9432,35.2211,39.7443,-0.029036,-0.01072927,0.0,0 STARLINK-4287,1 53020U 22076AL  22265.91667824 -.01072927  00000-0 -29036-1 0  9998,2 53020  53.2169 358.9432 0001759  35.2211  39.7443 15.39794298  1309,6824.854,93.519,447.92,445.519,0.0
53020.0,STARLINK-4287,PAYLOAD,2022-09-23 14:00:01,15.38273011,0.0001754,53.2174,355.8059,44.8002,125.8995,-0.03041,-0.01069037,0.0,0 STARLINK-4287,1 53020U 22076AL  22266.58334491 -.01069037  00000-0 -30410-1 0  9999,2 53020  53.2174 355.8059 0001754  44.8002 125.8995 15.38273011  1308,6829.353,93.611,452.416,450.02,0.0
53020.0,STARLINK-4287,PAYLOAD,2022-09-23 22:00:00,15.37514802,0.0001692,53.2173,354.2388,44.0023,173.1956,-0.0312529999999999,-0.01071506,0.0,0 STARLINK-4287,1 53020U 22076AL  22266.91667824 -.01071506  00000-0 -31253-1 0  9995,2 53020  53.2173 354.2388 0001692  44.0023 173.1956 15.37514802  1309,6831.598000000001,93.658,454.619,452.307,0.0
53020.0,STARLINK-4287,PAYLOAD,2022-09-24 14:00:01,15.35995155,0.0001889999999999,53.2174,351.1135,32.2372,275.2814,-0.032779,-0.01069874,0.0,0 STARLINK-4287,1 53020U 22076AL  22267.58335648 -.01069874  00000-0 -32779-1 0  9994,2 53020  53.2174 351.1135 0001890  32.2372 275.2814 15.35995155  1301,6836.103,93.75,459.26,456.676,0.0
53020.0,STARLINK-4287,PAYLOAD,2022-09-24 22:00:00,15.35236278,0.0001485,53.2173,349.5518,41.8838,309.3315,-0.033647,-0.01071418,0.0,0 STARLINK-4287,1 53020U 22076AL  22267.91667824 -.01071418  00000-0 -33647-1 0  9997,2 53020  53.2173 349.5518 0001485  41.8838 309.3315 15.35236278 12951,6838.356,93.797,461.236,459.205,0.0
53020.0,STARLINK-4287,PAYLOAD,2022-09-25 14:00:01,15.3371667,0.0001878,53.2175,346.4373,33.8851,42.1109,-0.035266,-0.01069878,0.0,0 STARLINK-4287,1 53020U 22076AL  22268.58334491 -.01069878  00000-0 -35266-1 0  9998,2 53020  53.2175 346.4373 0001878  33.8851  42.1109 15.33716670  1307,6842.871999999999,93.89,466.022,463.452,0.0
53020.0,STARLINK-4287,PAYLOAD,2022-09-25 22:00:01,15.32956054,0.0001901,53.2174,344.8809,33.8855,83.1975,-0.036055,-0.01067872,0.0,0 STARLINK-4287,1 53020U 22076AL  22268.91668981 -.01067872  00000-0 -36055-1 0  9998,2 53020  53.2174 344.8809 0001901  33.8855  83.1975 15.32956054  1300,6845.135,93.936,468.302,465.699,0.0
53020.0,STARLINK-4287,PAYLOAD,2022-09-26 14:00:01,15.31435479,0.0002026999999999,53.2174,341.7773,35.9349,160.3892,-0.037698,-0.01064553,0.0,0 STARLINK-4287,1 53020U 22076AL  22269.58334491 -.01064553  00000-0 -37698-1 0  9995,2 53020  53.2174 341.7773 0002027  35.9349 160.3892 15.31435479  1305,6849.666,94.029,472.919,470.142,0.0
53020.0,STARLINK-4287,PAYLOAD,2022-09-26 22:00:00,15.30678825,0.0001774,53.2175,340.2261,40.4574,194.1505,-0.0388019999999999,-0.01069557,0.0,0 STARLINK-4287,1 53020U 22076AL  22269.91667824 -.01069557  00000-0 -38802-1 0  9998,2 53020  53.2175 340.2261 0001774  40.4574 194.1505 15.30678825 13268,6851.9230000000025,94.076,475.003,472.572,0.0
53020.0,STARLINK-4287,PAYLOAD,2022-09-27 14:00:01,15.29157756,0.0001885,53.2175,337.1335,33.1013,275.3358,-0.040516,-0.01065572,0.0,0 STARLINK-4287,1 53020U 22076AL  22270.58334491 -.01065572  00000-0 -40516-1 0  9992,2 53020  53.2175 337.1335 0001885  33.1013 275.3358 15.29157756  1308,6856.465999999999,94.169,479.62300000000016,477.038,0.0
53020.0,STARLINK-4287,PAYLOAD,2022-09-27 22:00:01,15.28399837,0.0001606,53.2175,335.5874,38.0711,305.9762,-0.041625,-0.01069035,0.0,0 STARLINK-4287,1 53020U 22076AL  22270.91668981 -.01069035  00000-0 -41625-1 0  9993,2 53020  53.2175 335.5874 0001606  38.0711 305.9762 15.28399837  1304,6858.732,94.216,481.699,479.496,0.0
53020.0,STARLINK-4287,PAYLOAD,2022-09-28 14:00:01,15.26875148,0.0006912,53.2175,332.5057,271.3683,140.9696,-0.0430899999999999,-0.01058631,0.0,0 STARLINK-4287,1 53020U 22076AL  22271.58334491 -.01058631  00000-0 -43090-1 0  9991,2 53020  53.2175 332.5057 0006912 271.3683 140.9696 15.26875148  1304,6863.297,94.31,489.906,480.419,0.0
53020.0,STARLINK-4287,PAYLOAD,2022-09-28 22:00:00,15.26142274,0.0001816,53.2172,330.9666,36.2901,48.8436,-0.045875,-0.01097001,0.0,0 STARLINK-4287,1 53020U 22076AL  22271.91667824 -.01097001  00000-0 -45875-1 0  9994,2 53020  53.2172 330.9666 0001816  36.2901  48.8436 15.26142274  1303,6865.495,94.356,488.606,486.11300000000006,0.0
53020.0,STARLINK-4287,PAYLOAD,2022-09-29 14:00:01,15.24611807,0.0001821,53.2172,327.8953,42.9377,105.0776,-0.047224,-0.01079723,0.0,0 STARLINK-4287,1 53020U 22076AL  22272.58334491 -.01079723  00000-0 -47224-1 0  9990,2 53020  53.2172 327.8953 0001821  42.9377 105.0776 15.24611807  1308,6870.0880000000025,94.45,493.204,490.702,0.0
53020.0,STARLINK-4287,PAYLOAD,2022-09-29 22:00:00,15.23850675,0.0001892,53.2173,326.3601,39.3621,138.7247,-0.048204,-0.01077431,0.0,0 STARLINK-4287,1 53020U 22076AL  22272.91667824 -.01077431  00000-0 -48204-1 0  9999,2 53020  53.2173 326.3601 0001892  39.3621 138.7247 15.23850675  1306,6872.376,94.497,495.541,492.941,0.0
53020.0,STARLINK-4287,PAYLOAD,2022-09-30 06:00:02,15.23097766,0.0001749,53.217,324.8276,46.9223,160.3818,-0.04973,-0.01085963,0.0,0 STARLINK-4287,1 53020U 22076AL  22273.25002315 -.01085963  00000-0 -49730-1 0  9999,2 53020  53.2170 324.8276 0001749  46.9223 160.3818 15.23097766 13770,6874.64,94.544,497.708,495.30300000000005,0.0
53020.0,STARLINK-4287,PAYLOAD,2022-09-30 14:00:01,15.22325343,0.0001781,53.2172,323.2994,44.0299,191.4604,-0.049961,-0.01067839,0.0,0 STARLINK-4287,1 53020U 22076AL  22273.58334491 -.01067839  00000-0 -49961-1 0  9996,2 53020  53.2172 323.2994 0001781  44.0299 191.4604 15.22325343  1308,6876.965999999999,94.592,500.055,497.606,0.0
